CTC2_L_00257016-03
1 34295U 25163FN  26070.40844907  .00000000  00000+0  00000-0 0  9990
2 34295  80.0000 180.0000 0000000   0.0000   0.0000 14.06899812    11
CTC2_L_00257016-04
1 34296U 25613BO  26070.40844907  .00000000  00000+0  00000-0 0  9991
2 34296  80.0000 180.0000 0000000   0.0000  90.0000 14.06899812    11
CTC2_L_00257017-01
1 34297U 26316HX  26070.40844907  .00000000  00000+0  00000-0 0  9993
2 34297  80.0000 192.0000 0000000   0.0000 192.0000 14.06899812    18
CTC2_L_00257017-02
1 34298U 26266BR  26070.40844907  .00000000  00000+0  00000-0 0  9998
2 34298  80.0000 192.0000 0000000   0.0000 282.0000 14.06899812    19
CTC2_L_00257017-03
1 34299U 23611OX  26070.40844907  .00000000  00000+0  00000-0 0  9990
2 34299  80.0000 192.0000 0000000   0.0000  12.0000 14.06899812    11
CTC2_L_00257017-04
1 34300U 22604US  26070.40844907  .00000000  00000+0  00000-0 0  9994
2 34300  80.0000 192.0000 0000000   0.0000 102.0000 14.06899812    14
CTC2_L_00257018-01
1 34301U 26630VM  26070.40844907  .00000000  00000+0  00000-0 0  9998
2 34301  80.0000 204.0000 0000000   0.0000 204.0000 14.06899812    12
CTC2_L_00257018-02
1 34302U 25466SI  26070.40844907  .00000000  00000+0  00000-0 0  9995
2 34302  80.0000 204.0000 0000000   0.0000 294.0000 14.06899812    12
CTC2_L_00257018-03
1 34303U 23479AH  26070.40844907  .00000000  00000+0  00000-0 0  9998
2 34303  80.0000 204.0000 0000000   0.0000  24.0000 14.06899812    14
CTC2_L_00257018-04
1 34304U 22440FW  26070.40844907  .00000000  00000+0  00000-0 0  9996
2 34304  80.0000 204.0000 0000000   0.0000 114.0000 14.06899812    15
CTC2_L_00257019-01
1 34305U 25864OA  26070.40844907  .00000000  00000+0  00000-0 0  9990
2 34305  80.0000 216.0000 0000000   0.0000 216.0000 14.06899812    12
CTC2_L_00257019-02
1 34306U 24873MR  26070.40844907  .00000000  00000+0  00000-0 0  9990
2 34306  80.0000 216.0000 0000000   0.0000 306.0000 14.06899812    13
CTC2_L_00257019-03
1 34307U 23280YE  26070.40844907  .00000000  00000+0  00000-0 0  9992
2 34307  80.0000 216.0000 0000000   0.0000  36.0000 14.06899812    14
CTC2_L_00257019-04
1 34308U 25456IA  26070.40844907  .00000000  00000+0  00000-0 0  9990
2 34308  80.0000 216.0000 0000000   0.0000 126.0000 14.06899812    15
CTC2_L_00257020-01
1 34309U 22139JG  26070.40844907  .00000000  00000+0  00000-0 0  9996
2 34309  80.0000 228.0000 0000000   0.0000 228.0000 14.06899812    12
CTC2_L_00257020-02
1 34310U 26820LU  26070.40844907  .00000000  00000+0  00000-0 0  9999
2 34310  80.0000 228.0000 0000000   0.0000 318.0000 14.06899812    14
CTC2_L_00257020-03
1 34311U 26540KD  26070.40844907  .00000000  00000+0  00000-0 0  9999
2 34311  80.0000 228.0000 0000000   0.0000  48.0000 14.06899812    15
CTC2_L_00257020-04
1 34312U 22517TW  26070.40844907  .00000000  00000+0  00000-0 0  9990
2 34312  80.0000 228.0000 0000000   0.0000 138.0000 14.06899812    16
CTC2_L_00257021-01
1 34313U 23785UC  26070.40844907  .00000000  00000+0  00000-0 0  9999
2 34313  80.0000 240.0000 0000000   0.0000 240.0000 14.06899812    15
CTC2_L_00257021-02
1 34314U 26632BX  26070.40844907  .00000000  00000+0  00000-0 0  9994
2 34314  80.0000 240.0000 0000000   0.0000 330.0000 14.06899812    16
CTC2_L_00257021-03
1 34315U 22886UP  26070.40844907  .00000000  00000+0  00000-0 0  9992
2 34315  80.0000 240.0000 0000000   0.0000  60.0000 14.06899812    17
CTC2_L_00257021-04
1 34316U 26681IZ  26070.40844907  .00000000  00000+0  00000-0 0  9990
2 34316  80.0000 240.0000 0000000   0.0000 150.0000 14.06899812    18
CTC2_L_00257022-01
1 34317U 24144GK  26070.40844907  .00000000  00000+0  00000-0 0  9993
2 34317  80.0000 252.0000 0000000   0.0000 252.0000 14.06899812    15
CTC2_L_00257022-02
1 34318U 25311CF  26070.40844907  .00000000  00000+0  00000-0 0  9991
2 34318  80.0000 252.0000 0000000   0.0000 342.0000 14.06899812    16
CTC2_L_00257022-03
1 34319U 22794SF  26070.40844907  .00000000  00000+0  00000-0 0  9994
2 34319  80.0000 252.0000 0000000   0.0000  72.0000 14.06899812    17
CTC2_L_00257022-04
1 34320U 22981BG  26070.40844907  .00000000  00000+0  00000-0 0  9994
2 34320  80.0000 252.0000 0000000   0.0000 162.0000 14.06899812    19
CTC2_L_00257023-01
1 34321U 26896IH  26070.40844907  .00000000  00000+0  00000-0 0  9994
2 34321  80.0000 264.0000 0000000   0.0000 264.0000 14.06899812    16
CTC2_L_00257023-02
1 34322U 24986JW  26070.40844907  .00000000  00000+0  00000-0 0  9993
2 34322  80.0000 264.0000 0000000   0.0000 354.0000 14.06899812    17
CTC2_L_00257023-03
1 34323U 23013AR  26070.40844907  .00000000  00000+0  00000-0 0  9994
2 34323  80.0000 264.0000 0000000   0.0000  84.0000 14.06899812    18
CTC2_L_00257023-04
1 34324U 23585SR  26070.40844907  .00000000  00000+0  00000-0 0  9999
2 34324  80.0000 264.0000 0000000   0.0000 174.0000 14.06899812    19
CTC2_L_00257024-01
1 34325U 23827GG  26070.40844907  .00000000  00000+0  00000-0 0  9999
2 34325  80.0000 276.0000 0000000   0.0000 276.0000 14.06899812    16
CTC2_L_00257024-02
1 34326U 25928OO  26070.40844907  .00000000  00000+0  00000-0 0  9994
2 34326  80.0000 276.0000 0000000   0.0000   6.0000 14.06899812    18
CTC2_L_00257024-03
1 34327U 24258GT  26070.40844907  .00000000  00000+0  00000-0 0  9990
2 34327  80.0000 276.0000 0000000   0.0000  96.0000 14.06899812    18
CTC2_L_00257024-04
1 34328U 24206SF  26070.40844907  .00000000  00000+0  00000-0 0  9994
2 34328  80.0000 276.0000 0000000   0.0000 186.0000 14.06899812    19
CTC2_L_00257025-01
1 34329U 25212LA  26070.40844907  .00000000  00000+0  00000-0 0  9993
2 34329  80.0000 288.0000 0000000   0.0000 288.0000 14.06899812    16
CTC2_L_00257025-02
1 34330U 23860TO  26070.40844907  .00000000  00000+0  00000-0 0  9992
2 34330  80.0000 288.0000 0000000   0.0000  18.0000 14.06899812    19
CTC2_L_00257025-03
1 34331U 26735BR  26070.40844907  .00000000  00000+0  00000-0 0  9997
2 34331  80.0000 288.0000 0000000   0.0000 108.0000 14.06899812    10
CTC2_L_00257025-04
1 34332U 26556RE  26070.40844907  .00000000  00000+0  00000-0 0  9999
2 34332  80.0000 288.0000 0000000   0.0000 198.0000 14.06899812    10
CTC2_L_00257026-01
1 34333U 26539FH  26070.40844907  .00000000  00000+0  00000-0 0  9991
2 34333  80.0000 300.0000 0000000   0.0000 300.0000 14.06899812    11
CTC2_L_00257026-02
1 34334U 25246BL  26070.40844907  .00000000  00000+0  00000-0 0  9996
2 34334  80.0000 300.0000 0000000   0.0000  30.0000 14.06899812    12
CTC2_L_00257026-03
1 34335U 24782SL  26070.40844907  .00000000  00000+0  00000-0 0  9991
2 34335  80.0000 300.0000 0000000   0.0000 120.0000 14.06899812    13
CTC2_L_00257026-04
1 34336U 26217MZ  26070.40844907  .00000000  00000+0  00000-0 0  9997
2 34336  80.0000 300.0000 0000000   0.0000 210.0000 14.06899812    14
CTC2_L_00257027-01
1 34337U 23148CA  26070.40844907  .00000000  00000+0  00000-0 0  9998
2 34337  80.0000 312.0000 0000000   0.0000 312.0000 14.06899812    11
CTC2_L_00257027-02
1 34338U 24025MN  26070.40844907  .00000000  00000+0  00000-0 0  9994
2 34338  80.0000 312.0000 0000000   0.0000  42.0000 14.06899812    12
CTC2_L_00257027-03
1 34339U 22895SF  26070.40844907  .00000000  00000+0  00000-0 0  9998
2 34339  80.0000 312.0000 0000000   0.0000 132.0000 14.06899812    13
CTC2_L_00257027-04
1 34340U 26956VQ  26070.40844907  .00000000  00000+0  00000-0 0  9992
2 34340  80.0000 312.0000 0000000   0.0000 222.0000 14.06899812    15
CTC2_L_00257028-01
1 34341U 22257SD  26070.40844907  .00000000  00000+0  00000-0 0  9993
2 34341  80.0000 324.0000 0000000   0.0000 324.0000 14.06899812    12
CTC2_L_00257028-02
1 34342U 26474XQ  26070.40844907  .00000000  00000+0  00000-0 0  9999
2 34342  80.0000 324.0000 0000000   0.0000  54.0000 14.06899812    13
CTC2_L_00257028-03
1 34343U 26556SM  26070.40844907  .00000000  00000+0  00000-0 0  9991
2 34343  80.0000 324.0000 0000000   0.0000 144.0000 14.06899812    14
CTC2_L_00257028-04
1 34344U 24361UL  26070.40844907  .00000000  00000+0  00000-0 0  9994
2 34344  80.0000 324.0000 0000000   0.0000 234.0000 14.06899812    15
CTC2_L_00257029-01
1 34345U 24083HJ  26070.40844907  .00000000  00000+0  00000-0 0  9996
2 34345  80.0000 336.0000 0000000   0.0000 336.0000 14.06899812    12
CTC2_L_00257029-02
1 34346U 24845BH  26070.40844907  .00000000  00000+0  00000-0 0  9993
2 34346  80.0000 336.0000 0000000   0.0000  66.0000 14.06899812    13
CTC2_L_00257029-03
1 34347U 26703RD  26070.40844907  .00000000  00000+0  00000-0 0  9999
2 34347  80.0000 336.0000 0000000   0.0000 156.0000 14.06899812    14
CTC2_L_00257029-04
1 34348U 23053OO  26070.40844907  .00000000  00000+0  00000-0 0  9995
2 34348  80.0000 336.0000 0000000   0.0000 246.0000 14.06899812    15
CTC2_L_00257030-01
1 34349U 26012IL  26070.40844907  .00000000  00000+0  00000-0 0  9994
2 34349  80.0000 348.0000 0000000   0.0000 348.0000 14.06899812    12
CTC2_L_00257030-02
1 34350U 23754PE  26070.40844907  .00000000  00000+0  00000-0 0  9996
2 34350  80.0000 348.0000 0000000   0.0000  78.0000 14.06899812    14
CTC2_L_00257030-03
1 34351U 25379CV  26070.40844907  .00000000  00000+0  00000-0 0  9992
2 34351  80.0000 348.0000 0000000   0.0000 168.0000 14.06899812    15
CTC2_L_00257030-04
1 34352U 24260KU  26070.40844907  .00000000  00000+0  00000-0 0  9991
2 34352  80.0000 348.0000 0000000   0.0000 258.0000 14.06899812    16
